[{"OBJECT_NAME":"STARLINK-32641","OBJECT_ID":"2024-231U","EPOCH":"2026-03-09T15:52:03.978624","MEAN_MOTION":15.30198416,"ECCENTRICITY":9.691e-5,"INCLINATION":53.1583,"RA_OF_ASC_NODE":207.0009,"ARG_OF_PERICENTER":84.516,"MEAN_ANOMALY":275.5952,"EPHEMERIS_TYPE":0,"CLASSIFICATION_TYPE":"U","NORAD_CAT_ID":62236,"ELEMENT_SET_NO":999,"REV_AT_EPOCH":7193,"BSTAR":0.00054213083,"MEAN_MOTION_DOT":0.0001573,"MEAN_MOTION_DDOT":0},{"OBJECT_NAME":"COSMOS 2535 DEB","OBJECT_ID":"2019-039M","EPOCH":"2026-03-08T03:25:35.903424","MEAN_MOTION":15.28322551,"ECCENTRICITY":0.0014917,"INCLINATION":97.5619,"RA_OF_ASC_NODE":139.2722,"ARG_OF_PERICENTER":329.0964,"MEAN_ANOMALY":30.9396,"EPHEMERIS_TYPE":0,"CLASSIFICATION_TYPE":"U","NORAD_CAT_ID":44641,"ELEMENT_SET_NO":999,"REV_AT_EPOCH":35167,"BSTAR":0.0011539757,"MEAN_MOTION_DOT":0.0003196,"MEAN_MOTION_DDOT":0}]
